{
  "type": "FeatureCollection",
  "features": [
    {
      "type": "Feature",
      "properties": {
        "id": "gate_approach_restricted",
        "name": "Golden Gate approach restricted zone (demo layer)",
        "kind": "restricted"
      },
      "geometry": {
        "type": "Polygon",
        "coordinates": [
          [
            [-122.49, 37.8],
            [-122.462, 37.796],
            [-122.458, 37.832],
            [-122.487, 37.828],
            [-122.49, 37.8]
          ]
        ]
      }
    }
  ]
}
